{
"type": "FeatureCollection",
"name": "Fly_river_north_1",
"crs": { "type": "name", "properties": { "name": "urn:ogc:def:crs:OGC:1.3:CRS84" } },
"features": [
{ "type": "Feature", "properties": { "id": null }, "geometry": { "type": "MultiPolygon", "coordinates": [ [ [ [ 143.560653693119605, -8.093858016108605 ], [ 143.560653693119605, -7.968159912649663 ], [ 143.781934328022317, -7.968159912649663 ], [ 143.781934328022317, -8.093858016108605 ], [ 143.560653693119605, -8.093858016108605 ] ] ] ] } }
]
}
