{
"type": "FeatureCollection",
"name": "bbox_fiji",
"crs": { "type": "name", "properties": { "name": "urn:ogc:def:crs:OGC:1.3:CRS84" } },
"features": [
{ "type": "Feature", "properties": { "id": null }, "geometry": { "type": "MultiPolygon", "coordinates": [ [ [ [ 176.871437118884643, -19.298112437566139 ], [ 176.871437118884643, -15.803691288680222 ], [ 179.978664539502091, -15.803691288680222 ], [ 179.978664539502091, -19.298112437566139 ], [ 176.871437118884643, -19.298112437566139 ] ] ] ] } }
]
}
