{
"type": "FeatureCollection",
"name": "sols_bbox",
"crs": { "type": "name", "properties": { "name": "urn:ogc:def:crs:OGC:1.3:CRS84" } },
"features": [
{ "type": "Feature", "properties": { "id": null }, "geometry": { "type": "MultiPolygon", "coordinates": [ [ [ [ 156.180920970244017, -12.001837735537073 ], [ 156.180920970244017, -5.855082332866536 ], [ 162.885651764617364, -5.855082332866536 ], [ 162.885651764617364, -12.001837735537073 ], [ 156.180920970244017, -12.001837735537073 ] ] ] ] } }
]
}
