{
"type": "FeatureCollection",
"name": "png_bbox",
"crs": { "type": "name", "properties": { "name": "urn:ogc:def:crs:OGC:1.3:CRS84" } },
"features": [
{ "type": "Feature", "properties": { "id": null }, "geometry": { "type": "MultiPolygon", "coordinates": [ [ [ [ 140.479505321981406, -11.545631463738571 ], [ 140.628023118094006, -0.336955573505567 ], [ 157.315905999915429, -0.559469734793865 ], [ 157.167388203802801, -11.763505332765256 ], [ 140.479505321981406, -11.545631463738571 ] ] ] ] } }
]
}
