{
"type": "FeatureCollection",
"name": "Labasa_s1",
"crs": { "type": "name", "properties": { "name": "urn:ogc:def:crs:OGC:1.3:CRS84" } },
"features": [
{ "type": "Feature", "properties": { "id": "Labasa_s1" }, "geometry": { "type": "MultiPolygon", "coordinates": [ [ [ [ 179.270375332426511, -16.434779886609878 ], [ 179.270375332426511, -16.370210088035495 ], [ 179.38705141744839, -16.370210088035495 ], [ 179.38705141744839, -16.434779886609878 ], [ 179.270375332426511, -16.434779886609878 ] ] ] ] } }
]
}
