{
"type": "FeatureCollection",
"name": "Vanua_Levu_north_1",
"crs": { "type": "name", "properties": { "name": "urn:ogc:def:crs:OGC:1.3:CRS84" } },
"features": [
{ "type": "Feature", "properties": { "id": "Vanua_Levu_north_1" }, "geometry": { "type": "MultiPolygon", "coordinates": [ [ [ [ 179.013975493756078, -16.482459295422583 ], [ 179.013975493756078, -16.444302706411282 ], [ 179.081803280915295, -16.444302706411282 ], [ 179.081803280915295, -16.482459295422583 ], [ 179.013975493756078, -16.482459295422583 ] ] ] ] } }
]
}
