{
"type": "FeatureCollection",
"name": "Vonavona_s1",
"crs": { "type": "name", "properties": { "name": "urn:ogc:def:crs:OGC:1.3:CRS84" } },
"features": [
{ "type": "Feature", "properties": { "id": null }, "geometry": { "type": "MultiPolygon", "coordinates": [ [ [ [ 157.002232684395551, -8.214851376032023 ], [ 157.002232684395551, -8.145647154899139 ], [ 157.131904357390681, -8.145647154899139 ], [ 157.131904357390681, -8.214851376032023 ], [ 157.002232684395551, -8.214851376032023 ] ] ] ] } }
]
}
