{
"type": "FeatureCollection",
"name": "Malampa_s2",
"crs": { "type": "name", "properties": { "name": "urn:ogc:def:crs:OGC:1.3:CRS84" } },
"features": [
{ "type": "Feature", "properties": { "id": "Malampa_s2" }, "geometry": { "type": "MultiPolygon", "coordinates": [ [ [ [ 167.712338230221832, -16.354842603510026 ], [ 167.712338230221832, -16.312552595301472 ], [ 167.789146038873838, -16.312552595301472 ], [ 167.789146038873838, -16.354842603510026 ], [ 167.712338230221832, -16.354842603510026 ] ] ] ] } }
]
}
