{
"type": "FeatureCollection",
"name": "Fly_river_north_2",
"crs": { "type": "name", "properties": { "name": "urn:ogc:def:crs:OGC:1.3:CRS84" } },
"features": [
{ "type": "Feature", "properties": { "id": null }, "geometry": { "type": "MultiPolygon", "coordinates": [ [ [ [ 143.254782528887603, -8.25133406058503 ], [ 143.254782528887603, -8.094501706745582 ], [ 143.577190979226827, -8.094501706745582 ], [ 143.577190979226827, -8.25133406058503 ], [ 143.254782528887603, -8.25133406058503 ] ] ] ] } }
]
}
