{
"type": "FeatureCollection",
"name": "Kikori_s4",
"crs": { "type": "name", "properties": { "name": "urn:ogc:def:crs:OGC:1.3:CRS84" } },
"features": [
{ "type": "Feature", "properties": { "id": null }, "geometry": { "type": "MultiPolygon", "coordinates": [ [ [ [ 144.746593549338684, -7.683843482285145 ], [ 144.746593549338684, -7.653569874341758 ], [ 144.838124791775613, -7.653569874341758 ], [ 144.838124791775613, -7.683843482285145 ], [ 144.746593549338684, -7.683843482285145 ] ] ] ] } }
]
}
