{
"type": "FeatureCollection",
"name": "Kikori_s1",
"crs": { "type": "name", "properties": { "name": "urn:ogc:def:crs:OGC:1.3:CRS84" } },
"features": [
{ "type": "Feature", "properties": { "id": null }, "geometry": { "type": "MultiPolygon", "coordinates": [ [ [ [ 144.358955852316626, -7.769772534103312 ], [ 144.358955852316626, -7.686093505237015 ], [ 144.491021624845814, -7.686093505237015 ], [ 144.491021624845814, -7.769772534103312 ], [ 144.358955852316626, -7.769772534103312 ] ] ] ] } }
]
}
