{
"type": "FeatureCollection",
"name": "Kikori_sa1",
"crs": { "type": "name", "properties": { "name": "urn:ogc:def:crs:OGC:1.3:CRS84" } },
"features": [
{ "type": "Feature", "properties": { "id": null }, "geometry": { "type": "MultiPolygon", "coordinates": [ [ [ [ 144.615686411419517, -7.444514093068926 ], [ 144.615686411419517, -7.409610869123893 ], [ 144.669726029164536, -7.409610869123893 ], [ 144.669726029164536, -7.444514093068926 ], [ 144.615686411419517, -7.444514093068926 ] ] ] ] } }
]
}
