{
"type": "FeatureCollection",
"name": "gau_north_1",
"crs": { "type": "name", "properties": { "name": "urn:ogc:def:crs:OGC:1.3:CRS84" } },
"features": [
{ "type": "Feature", "properties": { "id": null }, "geometry": { "type": "MultiPolygon", "coordinates": [ [ [ [ 179.215145737210293, -18.024737006705749 ], [ 179.215145737210293, -17.917707719176825 ], [ 179.365929103160113, -17.917707719176825 ], [ 179.365929103160113, -18.024737006705749 ], [ 179.215145737210293, -18.024737006705749 ] ] ] ] } }
]
}
