{
"type": "FeatureCollection",
"name": "malampa_south_1",
"crs": { "type": "name", "properties": { "name": "urn:ogc:def:crs:OGC:1.3:CRS84" } },
"features": [
{ "type": "Feature", "properties": { "id": null }, "geometry": { "type": "MultiPolygon", "coordinates": [ [ [ [ 167.667466387742962, -16.571329921847489 ], [ 167.667466387742962, -16.307111325245891 ], [ 167.890634039967551, -16.307111325245891 ], [ 167.890634039967551, -16.571329921847489 ], [ 167.667466387742962, -16.571329921847489 ] ] ] ] } }
]
}
