{
"type": "FeatureCollection",
"name": "vunidogoloa_ra_1",
"crs": { "type": "name", "properties": { "name": "urn:ogc:def:crs:OGC:1.3:CRS84" } },
"features": [
{ "type": "Feature", "properties": { "id": null }, "geometry": { "type": "MultiPolygon", "coordinates": [ [ [ [ 177.997175836916938, -17.37491833674564 ], [ 177.997175836916938, -17.297695786385283 ], [ 178.172060851869105, -17.297695786385283 ], [ 178.172060851869105, -17.37491833674564 ], [ 177.997175836916938, -17.37491833674564 ] ] ] ] } }
]
}
